OBJECT_NAME,OBJECT_ID,EPOCH,MEAN_MOTION,ECCENTRICITY,INCLINATION,RA_OF_ASC_NODE,ARG_OF_PERICENTER,MEAN_ANOMALY,EPHEMERIS_TYPE,CLASSIFICATION_TYPE,NORAD_CAT_ID,ELEMENT_SET_NO,REV_AT_EPOCH,BSTAR,MEAN_MOTION_DOT,MEAN_MOTION_DDOT
QB50P1,2014-033R,2026-06-15T12:03:28.012320,15.18239692,.0007678,98.0960,177.5301,221.8963,138.1683,0,U,40025,999,65277,.35526E-3,.7203E-4,0
DTUSAT-2,2014-033W,2026-06-15T06:09:19.711296,15.14996756,.0006465,98.0859,163.8608,232.9556,127.1083,0,U,40030,999,65239,.30982E-3,.5713E-4,0
QB50P2,2014-033Y,2026-06-15T12:21:44.930304,15.15140467,.0007883,98.0745,163.2911,168.2312,191.9104,0,U,40032,999,65241,.30147E-3,.5581E-4,0
PERSEUS-M1,2014-033AF,2026-06-15T10:19:54.528672,14.95626197,.0010432,97.9642,110.5335,308.1412,51.8868,0,U,40039,999,65037,.10467E-3,.1103E-4,0
POLYITAN-1,2014-033AJ,2026-06-15T00:41:55.221504,15.33192699,.00084899,98.0936,192.0858,147.5892,212.5872,0,U,40042,999,65326,.55495063E-3,.17749E-3,0
TIGRISAT,2014-033AK,2026-06-15T08:44:21.238080,14.85156509,.0050644,97.7826,316.4173,81.0598,279.6345,0,U,40043,999,64535,.22485E-3,.1914E-4,0
CANX-4,2014-034C,2026-06-15T12:44:10.929120,14.81262041,.0013282,98.3124,41.7830,22.1909,337.9874,0,U,40055,999,64428,.11004E-3,.801E-5,0
CANX-5,2014-034D,2026-06-15T12:41:57.225120,14.81279243,.0013289,98.3126,41.8248,22.3751,337.8037,0,U,40056,999,63509,.11058E-3,.806E-5,0
GONETS-M 10,2014-036C,2026-06-15T11:03:14.278752,12.42945716,.0022591,82.5107,308.7466,144.1892,216.0708,0,U,40063,999,54203,.56063E-4,.18E-6,0
METEOR-M 2,2014-037A,2026-06-15T12:38:21.001344,14.21461040,.0006836,98.5105,142.3237,48.2751,311.9011,0,U,40069,999,61908,.14575E-4,-.1E-6,0
DX1,2014-037C,2026-06-15T11:32:45.395808,14.89979459,.000581,98.3862,128.0791,283.4138,76.6430,0,U,40071,999,64585,.86844E-4,.774E-5,0
UKUBE-1,2014-037F,2026-06-15T12:22:17.283648,15.13531578,.0002584,98.4228,169.6117,134.1984,225.9457,0,U,40074,999,64830,.37622E-3,.6665E-4,0
GAOFEN-2,2014-049A,2026-06-15T11:41:30.272352,14.80898906,.0006044,98.0117,230.6959,233.2228,126.8430,0,U,40118,999,63898,.12935E-3,.946E-5,0
BRITE-PL2 (HEWELIUSZ),2014-049B,2026-06-15T07:08:47.664096,14.94587421,.0015224,97.9096,278.2832,114.0820,246.1994,0,U,40119,999,64116,.13089E-3,.1359E-4,0
CBERS 4,2014-079A,2026-06-15T12:05:25.651104,14.35509037,.0001883,98.3538,223.3882,65.5809,294.5574,0,U,40336,999,60371,.93938E-4,.228E-5,0
SMAP,2015-003A,2026-06-15T12:10:25.179168,14.63365332,.0001307,98.1276,173.6256,96.0602,264.0749,0,U,40376,999,60737,.78139E-4,.357E-5,0
GONETS-M 11,2015-020A,2026-06-15T13:25:33.062016,12.42877214,.0016707,82.4876,32.0068,9.2477,350.8907,0,U,40552,999,50853,.29104E-3,.5E-6,0
GONETS-M 12,2015-020B,2026-06-15T10:51:29.244384,12.42891277,.0015442,82.4911,33.1968,354.7520,5.3395,0,U,40553,999,50851,.50779E-3,.8E-6,0
GONETS-M 13,2015-020C,2026-06-15T12:09:10.583136,12.42870662,.0013759,82.4872,31.7788,340.0669,19.9871,0,U,40554,999,50849,.81951E-3,.123E-5,0
DMC3-FM1,2015-032A,2026-06-15T12:31:11.570880,14.85739128,.0007074,97.6468,31.7624,64.2994,295.8952,0,U,40715,999,58966,.13564E-3,.1127E-4,0
DMC3-FM2,2015-032B,2026-06-15T13:02:57.356160,14.85743900,.0007666,97.6524,33.3563,68.0489,292.1541,0,U,40716,999,58966,.75403E-4,.604E-5,0
DMC3-FM3,2015-032C,2026-06-15T13:36:31.869792,14.85729832,.0006782,97.6574,35.1306,68.1984,291.9953,0,U,40717,999,58967,-.26379E-5,-.74E-6,0
CARBONITE 1 (CBNT-1),2015-032D,2026-06-15T11:54:46.300608,14.83580928,.0013286,97.6499,344.6335,304.1515,55.8439,0,U,40718,999,58909,.11513E-3,.899E-5,0
LILACSAT-2,2015-049K,2026-06-15T11:11:26.687040,15.51395885,.0005405,97.4644,203.2424,253.3485,106.7174,0,U,40908,999,59548,.24905E-3,.14579E-3,0
COSMOS 2507 (RODNIK-S 13),2015-050A,2026-06-15T11:04:20.747136,12.42926420,.0010287,82.4931,80.7448,0.5996,359.5094,0,U,40920,999,48664,-.13994E-3,-.1E-6,0
COSMOS 2508 (RODNIK-S 14),2015-050B,2026-06-15T11:55:27.971328,12.42914059,.0015242,82.4883,79.2285,30.3569,329.8390,0,U,40921,999,48663,.21135E-3,.39E-6,0
COSMOS 2509 (RODNIK-S 15),2015-050C,2026-06-15T12:24:41.620896,12.42883452,.0015767,82.4892,79.3180,46.3487,313.8897,0,U,40922,999,48667,.86788E-4,.22E-6,0
