QB50P1                  
1 40025U 14033R   26166.50240755  .00007203  00000+0  35526-3 0  9996
2 40025  98.0960 177.5301 0007678 221.8963 138.1683 15.18239692652771
DTUSAT-2                
1 40030U 14033W   26166.25647814  .00005713  00000+0  30982-3 0  9996
2 40030  98.0859 163.8608 0006465 232.9556 127.1083 15.14996756652393
QB50P2                  
1 40032U 14033Y   26166.51510336  .00005581  00000+0  30147-3 0  9991
2 40032  98.0745 163.2911 0007883 168.2312 191.9104 15.15140467652413
PERSEUS-M1              
1 40039U 14033AF  26166.43049223  .00001103  00000+0  10467-3 0  9990
2 40039  97.9642 110.5335 0010432 308.1412  51.8868 14.95626197650379
POLYITAN-1              
1 40042U 14033AJ  26166.02911136  .00017749  00000+0  55495-3 0  9993
2 40042  98.0936 192.0858 0008489 147.5892 212.5872 15.33192699653262
TIGRISAT                
1 40043U 14033AK  26166.36413470  .00001914  00000+0  22485-3 0  9999
2 40043  97.7826 316.4173 0050644  81.0598 279.6345 14.85156509645350
CANX-4                  
1 40055U 14034C   26166.53068205  .00000801  00000+0  11004-3 0  9993
2 40055  98.3124  41.7830 0013282  22.1909 337.9874 14.81262041644289
CANX-5                  
1 40056U 14034D   26166.52913455  .00000806  00000+0  11058-3 0  9993
2 40056  98.3126  41.8248 0013289  22.3751 337.8037 14.81279243635091
GONETS-M 10             
1 40063U 14036C   26166.46058193  .00000018  00000+0  56063-4 0  9996
2 40063  82.5107 308.7466 0022591 144.1892 216.0708 12.42945716542039
METEOR-M 2              
1 40069U 14037A   26166.52663196 -.00000010  00000+0  14575-4 0  9990
2 40069  98.5105 142.3237 0006836  48.2751 311.9011 14.21461040619084
DX1                     
1 40071U 14037C   26166.48108097  .00000774  00000+0  86844-4 0  9996
2 40071  98.3862 128.0791 0005810 283.4138  76.6430 14.89979459645850
UKUBE-1                 
1 40074U 14037F   26166.51547782  .00006665  00000+0  37622-3 0  9995
2 40074  98.4228 169.6117 0002584 134.1984 225.9457 15.13531578648304
GAOFEN-2                
1 40118U 14049A   26166.48715593  .00000946  00000+0  12935-3 0  9996
2 40118  98.0117 230.6959 0006044 233.2228 126.8430 14.80898906638983
BRITE-PL2 (HEWELIUSZ)   
1 40119U 14049B   26166.29777389  .00001359  00000+0  13089-3 0  9997
2 40119  97.9096 278.2832 0015224 114.0820 246.1994 14.94587421641167
CBERS 4                 
1 40336U 14079A   26166.50376911  .00000228  00000+0  93938-4 0  9997
2 40336  98.3538 223.3882 0001883  65.5809 294.5574 14.35509037603715
SMAP                    
1 40376U 15003A   26166.50723587  .00000357  00000+0  78139-4 0  9993
2 40376  98.1276 173.6256 0001307  96.0602 264.0749 14.63365332607370
GONETS-M 11             
1 40552U 15020A   26166.55941044  .00000050  00000+0  29104-3 0  9990
2 40552  82.4876  32.0068 0016707   9.2477 350.8907 12.42877214508533
GONETS-M 12             
1 40553U 15020B   26166.45242181  .00000080  00000+0  50779-3 0  9991
2 40553  82.4911  33.1968 0015442 354.7520   5.3395 12.42891277508513
GONETS-M 13             
1 40554U 15020C   26166.50637249  .00000123  00000+0  81951-3 0  9995
2 40554  82.4872  31.7788 0013759 340.0669  19.9871 12.42870662508497
DMC3-FM1                
1 40715U 15032A   26166.52166170  .00001127  00000+0  13564-3 0  9999
2 40715  97.6468  31.7624 0007074  64.2994 295.8952 14.85739128589666
DMC3-FM2                
1 40716U 15032B   26166.54371940  .00000604  00000+0  75403-4 0  9995
2 40716  97.6524  33.3563 0007666  68.0489 292.1541 14.85743900589665
DMC3-FM3                
1 40717U 15032C   26166.56703553 -.00000074  00000+0 -26379-5 0  9999
2 40717  97.6574  35.1306 0006782  68.1984 291.9953 14.85729832589678
CARBONITE 1 (CBNT-1)    
1 40718U 15032D   26166.49636922  .00000899  00000+0  11513-3 0  9992
2 40718  97.6499 344.6335 0013286 304.1515  55.8439 14.83580928589096
LILACSAT-2              
1 40908U 15049K   26166.46628110  .00014579  00000+0  24905-3 0  9997
2 40908  97.4644 203.2424 0005405 253.3485 106.7174 15.51395885595485
COSMOS 2507 (RODNIK-S *)
1 40920U 15050A   26166.46135124 -.00000010  00000+0 -13994-3 0  9994
2 40920  82.4931  80.7448 0010287   0.5996 359.5094 12.42926420486647
COSMOS 2508 (RODNIK-S *)
1 40921U 15050B   26166.49685152  .00000039  00000+0  21135-3 0  9994
2 40921  82.4883  79.2285 0015242  30.3569 329.8390 12.42914059486632
COSMOS 2509 (RODNIK-S *)
1 40922U 15050C   26166.51714839  .00000022  00000+0  86788-4 0  9991
2 40922  82.4892  79.3180 0015767  46.3487 313.8897 12.42883452486677
